ONEWEB-0354             
1 49217U 21083AH  26070.17952422  .00000100  00000+0  21392-3 0  9994
2 49217  87.9169 294.0067 0001736  77.0608 283.0719 13.20769937223877
ONEWEB-0355             
1 49218U 21083AJ  26070.16575296 -.00000129  00000+0 -38789-3 0  9995
2 49218  87.9024 339.7459 0001963  78.7646 281.3704 13.13470163218031
ONEWEB-0357             
1 49219U 21083AK  26070.17636952  .00000043  00000+0  74484-4 0  9990
2 49219  87.9168 294.0023 0001799  88.1484 271.9856 13.20770206223873
ONEWEB-0332             
1 49279U 21090A   26070.17892594  .00000274  00000+0  70473-3 0  9999
2 49279  87.8981 309.2658 0001606  91.1344 268.9970 13.14503349214700
ONEWEB-0347             
1 49280U 21090B   26070.16690440  .00000070  00000+0  13912-3 0  9995
2 49280  87.9167 294.0128 0001467  95.4629 264.6672 13.20770648218105
ONEWEB-0349             
1 49281U 21090C   26070.04695741  .00000167  00000+0  37803-3 0  9994
2 49281  87.9168 294.0367 0001647  84.8523 275.2798 13.20770189216876
ONEWEB-0353             
1 49282U 21090D   26070.17099531  .00000095  00000+0  22043-3 0  9994
2 49282  87.8984 309.2617 0001517  92.1553 267.9750 13.14503427214708
ONEWEB-0356             
1 49283U 21090E   26070.04537156  .00000078  00000+0  15932-3 0  9991
2 49283  87.9168 294.0303 0000746  80.0062 280.1156 13.20770044216876
ONEWEB-0358             
1 49284U 21090F   26070.15112467 -.00000046  00000+0 -14433-3 0  9990
2 49284  87.9165 294.0120 0001557  83.7729 276.3582 13.20770094217610
ONEWEB-0359             
1 49285U 21090G   26070.14797042 -.00000009  00000+0 -54637-4 0  9998
2 49285  87.9167 294.0101 0001697  77.2063 282.9260 13.20770800217594
ONEWEB-0360             
1 49286U 21090H   26070.06273288 -.00000028  00000+0 -10162-3 0  9996
2 49286  87.9170 294.0331 0001696  83.1490 276.9837 13.20770183216892
ONEWEB-0361             
1 49287U 21090J   26070.04379330  .00000072  00000+0  14526-3 0  9995
2 49287  87.9170 294.0345 0001432  80.9555 279.1741 13.20770120217344
ONEWEB-0362             
1 49288U 21090K   26070.14611221 -.00000021  00000+0 -84991-4 0  9995
2 49288  87.9225 324.5144 0001948  81.4446 278.6907 13.19724594213985
ONEWEB-0363             
1 49289U 21090L   26070.13534270  .00000022  00000+0  22130-4 0  9999
2 49289  87.9168 294.0176 0001327  76.7090 283.4191 13.20770712217361
ONEWEB-0364             
1 49290U 21090M   26070.17321991  .00000090  00000+0  19045-3 0  9994
2 49290  87.9156 294.0240 0001517  84.9145 275.2162 13.20770273218501
ONEWEB-0365             
1 49291U 21090N   26070.23140575 -.00000003  00000+0 -38681-4 0  9993
2 49291  87.9237 324.4769 0001738  82.1164 278.0166 13.19724805213500
ONEWEB-0366             
1 49292U 21090P   26070.16782590 -.00000032  00000+0 -12152-3 0  9991
2 49292  87.8974 309.2723 0001625  79.3476 280.7836 13.14503369214687
