[{"OBJECT_NAME":"ONEWEB-0354","OBJECT_ID":"2021-083AH","EPOCH":"2026-03-11T04:18:30.892608","MEAN_MOTION":13.20769937,"ECCENTRICITY":0.00017361,"INCLINATION":87.9169,"RA_OF_ASC_NODE":294.0067,"ARG_OF_PERICENTER":77.0608,"MEAN_ANOMALY":283.0719,"EPHEMERIS_TYPE":0,"CLASSIFICATION_TYPE":"U","NORAD_CAT_ID":49217,"ELEMENT_SET_NO":999,"REV_AT_EPOCH":22387,"BSTAR":0.00021392442,"MEAN_MOTION_DOT":1.0e-6,"MEAN_MOTION_DDOT":0},{"OBJECT_NAME":"ONEWEB-0355","OBJECT_ID":"2021-083AJ","EPOCH":"2026-03-11T03:58:41.055744","MEAN_MOTION":13.13470163,"ECCENTRICITY":0.00019634,"INCLINATION":87.9024,"RA_OF_ASC_NODE":339.7459,"ARG_OF_PERICENTER":78.7646,"MEAN_ANOMALY":281.3704,"EPHEMERIS_TYPE":0,"CLASSIFICATION_TYPE":"U","NORAD_CAT_ID":49218,"ELEMENT_SET_NO":999,"REV_AT_EPOCH":21803,"BSTAR":-0.00038788637,"MEAN_MOTION_DOT":-1.29e-6,"MEAN_MOTION_DDOT":0},{"OBJECT_NAME":"ONEWEB-0357","OBJECT_ID":"2021-083AK","EPOCH":"2026-03-11T04:13:58.326528","MEAN_MOTION":13.20770206,"ECCENTRICITY":0.00017995,"INCLINATION":87.9168,"RA_OF_ASC_NODE":294.0023,"ARG_OF_PERICENTER":88.1484,"MEAN_ANOMALY":271.9856,"EPHEMERIS_TYPE":0,"CLASSIFICATION_TYPE":"U","NORAD_CAT_ID":49219,"ELEMENT_SET_NO":999,"REV_AT_EPOCH":22387,"BSTAR":7.4484464e-5,"MEAN_MOTION_DOT":4.3e-7,"MEAN_MOTION_DDOT":0},{"OBJECT_NAME":"ONEWEB-0332","OBJECT_ID":"2021-090A","EPOCH":"2026-03-11T04:17:39.201216","MEAN_MOTION":13.14503349,"ECCENTRICITY":0.00016065,"INCLINATION":87.8981,"RA_OF_ASC_NODE":309.2658,"ARG_OF_PERICENTER":91.1344,"MEAN_ANOMALY":268.997,"EPHEMERIS_TYPE":0,"CLASSIFICATION_TYPE":"U","NORAD_CAT_ID":49279,"ELEMENT_SET_NO":999,"REV_AT_EPOCH":21470,"BSTAR":0.0007047252,"MEAN_MOTION_DOT":2.74e-6,"MEAN_MOTION_DDOT":0},{"OBJECT_NAME":"ONEWEB-0347","OBJECT_ID":"2021-090B","EPOCH":"2026-03-11T04:00:20.540160","MEAN_MOTION":13.20770648,"ECCENTRICITY":0.00014672,"INCLINATION":87.9167,"RA_OF_ASC_NODE":294.0128,"ARG_OF_PERICENTER":95.4629,"MEAN_ANOMALY":264.6672,"EPHEMERIS_TYPE":0,"CLASSIFICATION_TYPE":"U","NORAD_CAT_ID":49280,"ELEMENT_SET_NO":999,"REV_AT_EPOCH":21810,"BSTAR":0.0001391231,"MEAN_MOTION_DOT":7.0e-7,"MEAN_MOTION_DDOT":0},{"OBJECT_NAME":"ONEWEB-0349","OBJECT_ID":"2021-090C","EPOCH":"2026-03-11T01:07:37.120224","MEAN_MOTION":13.20770189,"ECCENTRICITY":0.00016476,"INCLINATION":87.9168,"RA_OF_ASC_NODE":294.0367,"ARG_OF_PERICENTER":84.8523,"MEAN_ANOMALY":275.2798,"EPHEMERIS_TYPE":0,"CLASSIFICATION_TYPE":"U","NORAD_CAT_ID":49281,"ELEMENT_SET_NO":999,"REV_AT_EPOCH":21687,"BSTAR":0.00037802523,"MEAN_MOTION_DOT":1.67e-6,"MEAN_MOTION_DDOT":0},{"OBJECT_NAME":"ONEWEB-0353","OBJECT_ID":"2021-090D","EPOCH":"2026-03-11T04:06:13.994784","MEAN_MOTION":13.14503427,"ECCENTRICITY":0.00015175,"INCLINATION":87.8984,"RA_OF_ASC_NODE":309.2617,"ARG_OF_PERICENTER":92.1553,"MEAN_ANOMALY":267.975,"EPHEMERIS_TYPE":0,"CLASSIFICATION_TYPE":"U","NORAD_CAT_ID":49282,"ELEMENT_SET_NO":999,"REV_AT_EPOCH":21470,"BSTAR":0.00022042927,"MEAN_MOTION_DOT":9.5e-7,"MEAN_MOTION_DDOT":0},{"OBJECT_NAME":"ONEWEB-0356","OBJECT_ID":"2021-090E","EPOCH":"2026-03-11T01:05:20.102784","MEAN_MOTION":13.20770044,"ECCENTRICITY":7.464e-5,"INCLINATION":87.9168,"RA_OF_ASC_NODE":294.0303,"ARG_OF_PERICENTER":80.0062,"MEAN_ANOMALY":280.1156,"EPHEMERIS_TYPE":0,"CLASSIFICATION_TYPE":"U","NORAD_CAT_ID":49283,"ELEMENT_SET_NO":999,"REV_AT_EPOCH":21687,"BSTAR":0.00015931566,"MEAN_MOTION_DOT":7.8e-7,"MEAN_MOTION_DDOT":0},{"OBJECT_NAME":"ONEWEB-0358","OBJECT_ID":"2021-090F","EPOCH":"2026-03-11T03:37:37.171488","MEAN_MOTION":13.20770094,"ECCENTRICITY":0.00015578,"INCLINATION":87.9165,"RA_OF_ASC_NODE":294.012,"ARG_OF_PERICENTER":83.7729,"MEAN_ANOMALY":276.3582,"EPHEMERIS_TYPE":0,"CLASSIFICATION_TYPE":"U","NORAD_CAT_ID":49284,"ELEMENT_SET_NO":999,"REV_AT_EPOCH":21761,"BSTAR":-0.00014432543,"MEAN_MOTION_DOT":-4.6e-7,"MEAN_MOTION_DDOT":0},{"OBJECT_NAME":"ONEWEB-0359","OBJECT_ID":"2021-090G","EPOCH":"2026-03-11T03:33:04.644288","MEAN_MOTION":13.207708,"ECCENTRICITY":0.0001697,"INCLINATION":87.9167,"RA_OF_ASC_NODE":294.0101,"ARG_OF_PERICENTER":77.2063,"MEAN_ANOMALY":282.926,"EPHEMERIS_TYPE":0,"CLASSIFICATION_TYPE":"U","NORAD_CAT_ID":49285,"ELEMENT_SET_NO":999,"REV_AT_EPOCH":21759,"BSTAR":-5.4636656e-5,"MEAN_MOTION_DOT":-9.0e-8,"MEAN_MOTION_DDOT":0},{"OBJECT_NAME":"ONEWEB-0360","OBJECT_ID":"2021-090H","EPOCH":"2026-03-11T01:30:20.120832","MEAN_MOTION":13.20770183,"ECCENTRICITY":0.00016967,"INCLINATION":87.917,"RA_OF_ASC_NODE":294.0331,"ARG_OF_PERICENTER":83.149,"MEAN_ANOMALY":276.9837,"EPHEMERIS_TYPE":0,"CLASSIFICATION_TYPE":"U","NORAD_CAT_ID":49286,"ELEMENT_SET_NO":999,"REV_AT_EPOCH":21689,"BSTAR":-0.00010161502,"MEAN_MOTION_DOT":-2.8e-7,"MEAN_MOTION_DDOT":0},{"OBJECT_NAME":"ONEWEB-0361","OBJECT_ID":"2021-090J","EPOCH":"2026-03-11T01:03:03.741120","MEAN_MOTION":13.2077012,"ECCENTRICITY":0.00014326,"INCLINATION":87.917,"RA_OF_ASC_NODE":294.0345,"ARG_OF_PERICENTER":80.9555,"MEAN_ANOMALY":279.1741,"EPHEMERIS_TYPE":0,"CLASSIFICATION_TYPE":"U","NORAD_CAT_ID":49287,"ELEMENT_SET_NO":999,"REV_AT_EPOCH":21734,"BSTAR":0.00014526224,"MEAN_MOTION_DOT":7.2e-7,"MEAN_MOTION_DDOT":0},{"OBJECT_NAME":"ONEWEB-0362","OBJECT_ID":"2021-090K","EPOCH":"2026-03-11T03:30:24.094944","MEAN_MOTION":13.19724594,"ECCENTRICITY":0.00019482,"INCLINATION":87.9225,"RA_OF_ASC_NODE":324.5144,"ARG_OF_PERICENTER":81.4446,"MEAN_ANOMALY":278.6907,"EPHEMERIS_TYPE":0,"CLASSIFICATION_TYPE":"U","NORAD_CAT_ID":49288,"ELEMENT_SET_NO":999,"REV_AT_EPOCH":21398,"BSTAR":-8.4991357e-5,"MEAN_MOTION_DOT":-2.1e-7,"MEAN_MOTION_DDOT":0},{"OBJECT_NAME":"ONEWEB-0363","OBJECT_ID":"2021-090L","EPOCH":"2026-03-11T03:14:53.609280","MEAN_MOTION":13.20770712,"ECCENTRICITY":0.00013274,"INCLINATION":87.9168,"RA_OF_ASC_NODE":294.0176,"ARG_OF_PERICENTER":76.709,"MEAN_ANOMALY":283.4191,"EPHEMERIS_TYPE":0,"CLASSIFICATION_TYPE":"U","NORAD_CAT_ID":49289,"ELEMENT_SET_NO":999,"REV_AT_EPOCH":21736,"BSTAR":2.2129559e-5,"MEAN_MOTION_DOT":2.2e-7,"MEAN_MOTION_DDOT":0},{"OBJECT_NAME":"ONEWEB-0364","OBJECT_ID":"2021-090M","EPOCH":"2026-03-11T04:09:26.200224","MEAN_MOTION":13.20770273,"ECCENTRICITY":0.00015175,"INCLINATION":87.9156,"RA_OF_ASC_NODE":294.024,"ARG_OF_PERICENTER":84.9145,"MEAN_ANOMALY":275.2162,"EPHEMERIS_TYPE":0,"CLASSIFICATION_TYPE":"U","NORAD_CAT_ID":49290,"ELEMENT_SET_NO":999,"REV_AT_EPOCH":21850,"BSTAR":0.00019044845,"MEAN_MOTION_DOT":9.0e-7,"MEAN_MOTION_DDOT":0},{"OBJECT_NAME":"ONEWEB-0365","OBJECT_ID":"2021-090N","EPOCH":"2026-03-11T05:33:13.456800","MEAN_MOTION":13.19724805,"ECCENTRICITY":0.0001738,"INCLINATION":87.9237,"RA_OF_ASC_NODE":324.4769,"ARG_OF_PERICENTER":82.1164,"MEAN_ANOMALY":278.0166,"EPHEMERIS_TYPE":0,"CLASSIFICATION_TYPE":"U","NORAD_CAT_ID":49291,"ELEMENT_SET_NO":999,"REV_AT_EPOCH":21350,"BSTAR":-3.8681463e-5,"MEAN_MOTION_DOT":-3.0e-8,"MEAN_MOTION_DDOT":0},{"OBJECT_NAME":"ONEWEB-0366","OBJECT_ID":"2021-090P","EPOCH":"2026-03-11T04:01:40.157760","MEAN_MOTION":13.14503369,"ECCENTRICITY":0.00016254,"INCLINATION":87.8974,"RA_OF_ASC_NODE":309.2723,"ARG_OF_PERICENTER":79.3476,"MEAN_ANOMALY":280.7836,"EPHEMERIS_TYPE":0,"CLASSIFICATION_TYPE":"U","NORAD_CAT_ID":49292,"ELEMENT_SET_NO":999,"REV_AT_EPOCH":21468,"BSTAR":-0.00012151641,"MEAN_MOTION_DOT":-3.2e-7,"MEAN_MOTION_DDOT":0}]
